[{"OBJECT_NAME":"STARLINK-34455","OBJECT_ID":"2025-198F","EPOCH":"2026-03-09T23:11:26.964384","MEAN_MOTION":15.30203549,"ECCENTRICITY":6.982e-5,"INCLINATION":53.1579,"RA_OF_ASC_NODE":269.629,"ARG_OF_PERICENTER":89.2592,"MEAN_ANOMALY":270.8489,"EPHEMERIS_TYPE":0,"CLASSIFICATION_TYPE":"U","NORAD_CAT_ID":65497,"ELEMENT_SET_NO":999,"REV_AT_EPOCH":2866,"BSTAR":0.0011076926,"MEAN_MOTION_DOT":0.00032595,"MEAN_MOTION_DDOT":0},{"OBJECT_NAME":"GLOBAL-34","OBJECT_ID":"2026-043A","EPOCH":"2026-03-09T11:23:30.999840","MEAN_MOTION":15.31488019,"ECCENTRICITY":0.00068849,"INCLINATION":42.0215,"RA_OF_ASC_NODE":76.7399,"ARG_OF_PERICENTER":289.2632,"MEAN_ANOMALY":70.746,"EPHEMERIS_TYPE":0,"CLASSIFICATION_TYPE":"U","NORAD_CAT_ID":68098,"ELEMENT_SET_NO":999,"REV_AT_EPOCH":53,"BSTAR":0.00045822046,"MEAN_MOTION_DOT":0.00014018,"MEAN_MOTION_DDOT":0}]
